{"type": "FeatureCollection", "features": [{"type": "Feature", "properties": {"norad_id": 24946, "name": "IRIDIUM 33", "group": "iridium-33-debris", "lat": 5.824909049373141, "lon": 65.97044137440152, "alt_km": 782.6851318317895, "timestamp": "2025-12-18T23:35:49.446947+00:00", "meta": {"OBJECT_NAME": "IRIDIUM 33", "OBJECT_ID": "1997-051C", "EPOCH": "2025-12-18T15:12:08.915328", "MEAN_MOTION": 14.35041483, "ECCENTRICITY": 0.0007737, "INCLINATION": 86.3868, "RA_OF_ASC_NODE": 65.7479, "ARG_OF_PERICENTER": 180.2662, "MEAN_ANOMALY": 179.8531, "EPHEMERIS_TYPE": 0, "CLASSIFICATION_TYPE": "U", "NORAD_CAT_ID": 24946, "ELEMENT_SET_NO": 999, "REV_AT_EPOCH": 47919, "BSTAR": 9.2049162e-05, "MEAN_MOTION_DOT": 2.82e-06, "MEAN_MOTION_DDOT": 0}, "tle": {"line1": "1 24946U 97051C   25352.63343652  .00000282  00000+0  92049-4 0  9995", "line2": "2 24946  86.3868  65.7479 0007737 180.2662 179.8531 14.35041483479190"}}, "geometry": {"type": "Point", "coordinates": [65.97044137440152, 5.824909049373141]}}, {"type": "Feature", "properties": {"norad_id": 33773, "name": "IRIDIUM 33 DEB", "group": "iridium-33-debris", "lat": 32.23266216599627, "lon": -124.33085753766822, "alt_km": 737.1977491199714, "timestamp": "2025-12-18T23:35:49.447010+00:00", "meta": {"OBJECT_NAME": "IRIDIUM 33 DEB", "OBJECT_ID": "1997-051L", "EPOCH": "2025-12-18T14:35:47.067360", "MEAN_MOTION": 14.43269187, "ECCENTRICITY": 0.00129706, "INCLINATION": 86.4005, "RA_OF_ASC_NODE": 58.1027, "ARG_OF_PERICENTER": 129.3163, "MEAN_ANOMALY": 230.919, "EPHEMERIS_TYPE": 0, "CLASSIFICATION_TYPE": "U", "NORAD_CAT_ID": 33773, "ELEMENT_SET_NO": 999, "REV_AT_EPOCH": 88432, "BSTAR": 0.00022726511, "MEAN_MOTION_DOT": 7.85e-06, "MEAN_MOTION_DDOT": 0}, "tle": {"line1": "1 33773U 97051L   25352.60818365  .00000785  00000+0  22727-3 0  9991", "line2": "2 33773  86.4005  58.1027 0012970 129.3163 230.9190 14.43269187884329"}}, "geometry": {"type": "Point", "coordinates": [-124.33085753766822, 32.23266216599627]}}, {"type": "Feature", "properties": {"norad_id": 33775, "name": "IRIDIUM 33 DEB", "group": "iridium-33-debris", "lat": -11.15857488716532, "lon": -132.39310274022586, "alt_km": 751.9624508273864, "timestamp": "2025-12-18T23:35:49.447028+00:00", "meta": {"OBJECT_NAME": "IRIDIUM 33 DEB", "OBJECT_ID": "1997-051N", "EPOCH": "2025-12-18T15:09:18.283968", "MEAN_MOTION": 14.41480669, "ECCENTRICITY": 0.00148625, "INCLINATION": 86.3631, "RA_OF_ASC_NODE": 47.0382, "ARG_OF_PERICENTER": 136.8807, "MEAN_ANOMALY": 29.8565, "EPHEMERIS_TYPE": 0, "CLASSIFICATION_TYPE": "U", "NORAD_CAT_ID": 33775, "ELEMENT_SET_NO": 999, "REV_AT_EPOCH": 88225, "BSTAR": 0.00024003689, "MEAN_MOTION_DOT": 8e-06, "MEAN_MOTION_DDOT": 0}, "tle": {"line1": "1 33775U 97051N   25352.63146162  .00000800  00000+0  24004-3 0  9993", "line2": "2 33775  86.3631  47.0382 0014862 136.8807  29.8565 14.41480669882255"}}, "geometry": {"type": "Point", "coordinates": [-132.39310274022586, -11.15857488716532]}}, {"type": "Feature", "properties": {"norad_id": 33776, "name": "IRIDIUM 33 DEB", "group": "iridium-33-debris", "lat": -12.084498522710213, "lon": 77.38264385913355, "alt_km": 779.5220544814974, "timestamp": "2025-12-18T23:35:49.447044+00:00", "meta": {"OBJECT_NAME": "IRIDIUM 33 DEB", "OBJECT_ID": "1997-051P", "EPOCH": "2025-12-18T15:49:59.503008", "MEAN_MOTION": 14.38245294, "ECCENTRICITY": 0.00150355, "INCLINATION": 86.4036, "RA_OF_ASC_NODE": 78.29, "ARG_OF_PERICENTER": 171.2358, "MEAN_ANOMALY": 302.8778, "EPHEMERIS_TYPE": 0, "CLASSIFICATION_TYPE": "U", "NORAD_CAT_ID": 33776, "ELEMENT_SET_NO": 999, "REV_AT_EPOCH": 88167, "BSTAR": 0.0002151729, "MEAN_MOTION_DOT": 6.74e-06, "MEAN_MOTION_DDOT": 0}, "tle": {"line1": "1 33776U 97051P   25352.65971647  .00000674  00000+0  21517-3 0  9995", "line2": "2 33776  86.4036  78.2900 0015035 171.2358 302.8778 14.38245294881679"}}, "geometry": {"type": "Point", "coordinates": [77.38264385913355, -12.084498522710213]}}, {"type": "Feature", "properties": {"norad_id": 33777, "name": "IRIDIUM 33 DEB", "group": "iridium-33-debris", "lat": 13.759719959175017, "lon": -148.40102978703808, "alt_km": 706.1190744700025, "timestamp": "2025-12-18T23:35:49.447057+00:00", "meta": {"OBJECT_NAME": "IRIDIUM 33 DEB", "OBJECT_ID": "1997-051Q", "EPOCH": "2025-12-18T14:35:13.054272", "MEAN_MOTION": 14.55654018, "ECCENTRICITY": 0.00055986, "INCLINATION": 86.378, "RA_OF_ASC_NODE": 32.651, "ARG_OF_PERICENTER": 222.9742, "MEAN_ANOMALY": 137.1029, "EPHEMERIS_TYPE": 0, "CLASSIFICATION_TYPE": "U", "NORAD_CAT_ID": 33777, "ELEMENT_SET_NO": 999, "REV_AT_EPOCH": 88619, "BSTAR": 0.00059855327, "MEAN_MOTION_DOT": 2.634e-05, "MEAN_MOTION_DDOT": 0}, "tle": {"line1": "1 33777U 97051Q   25352.60778998  .00002634  00000+0  59855-3 0  9999", "line2": "2 33777  86.3780  32.6510 0005598 222.9742 137.1029 14.55654018886197"}}, "geometry": {"type": "Point", "coordinates": [-148.40102978703808, 13.759719959175017]}}, {"type": "Feature", "properties": {"norad_id": 33850, "name": "IRIDIUM 33 DEB", "group": "iridium-33-debris", "lat": -7.248473642002791, "lon": -152.03870995853015, "alt_km": 748.8712080418272, "timestamp": "2025-12-18T23:35:49.447069+00:00", "meta": {"OBJECT_NAME": "IRIDIUM 33 DEB", "OBJECT_ID": "1997-051T", "EPOCH": "2025-12-18T14:59:17.983680", "MEAN_MOTION": 14.42158968, "ECCENTRICITY": 0.00127915, "INCLINATION": 86.3413, "RA_OF_ASC_NODE": 27.6492, "ARG_OF_PERICENTER": 143.3422, "MEAN_ANOMALY": 342.6058, "EPHEMERIS_TYPE": 0, "CLASSIFICATION_TYPE": "U", "NORAD_CAT_ID": 33850, "ELEMENT_SET_NO": 999, "REV_AT_EPOCH": 88237, "BSTAR": 0.00026637841, "MEAN_MOTION_DOT": 8.97e-06, "MEAN_MOTION_DDOT": 0}, "tle": {"line1": "1 33850U 97051T   25352.62451370  .00000897  00000+0  26638-3 0  9997", "line2": "2 33850  86.3413  27.6492 0012791 143.3422 342.6058 14.42158968882379"}}, "geometry": {"type": "Point", "coordinates": [-152.03870995853015, -7.248473642002791]}}, {"type": "Feature", "properties": {"norad_id": 33853, "name": "IRIDIUM 33 DEB", "group": "iridium-33-debris", "lat": -34.3223296291807, "lon": -15.66484587652389, "alt_km": 949.8163354974431, "timestamp": "2025-12-18T23:35:49.447083+00:00", "meta": {"OBJECT_NAME": "IRIDIUM 33 DEB", "OBJECT_ID": "1997-051W", "EPOCH": "2025-12-18T10:46:35.462784", "MEAN_MOTION": 13.9909411, "ECCENTRICITY": 0.02071281, "INCLINATION": 85.9998, "RA_OF_ASC_NODE": 347.3075, "ARG_OF_PERICENTER": 218.1719, "MEAN_ANOMALY": 296.3218, "EPHEMERIS_TYPE": 0, "CLASSIFICATION_TYPE": "U", "NORAD_CAT_ID": 33853, "ELEMENT_SET_NO": 999, "REV_AT_EPOCH": 85425, "BSTAR": 0.0013854201, "MEAN_MOTION_DOT": 2.426e-05, "MEAN_MOTION_DDOT": 0}, "tle": {"line1": "1 33853U 97051W   25352.44902156  .00002426  00000+0  13854-2 0  9998", "line2": "2 33853  85.9998 347.3075 0207128 218.1719 296.3218 13.99094110854252"}}, "geometry": {"type": "Point", "coordinates": [-15.66484587652389, -34.3223296291807]}}, {"type": "Feature", "properties": {"norad_id": 33860, "name": "IRIDIUM 33 DEB", "group": "iridium-33-debris", "lat": -32.3418305053067, "lon": 22.179258920132654, "alt_km": 670.7597339450913, "timestamp": "2025-12-18T23:35:49.447095+00:00", "meta": {"OBJECT_NAME": "IRIDIUM 33 DEB", "OBJECT_ID": "1997-051AD", "EPOCH": "2025-12-18T14:31:05.174400", "MEAN_MOTION": 14.67436925, "ECCENTRICITY": 0.00067189, "INCLINATION": 86.3829, "RA_OF_ASC_NODE": 24.6422, "ARG_OF_PERICENTER": 336.0617, "MEAN_ANOMALY": 154.5201, "EPHEMERIS_TYPE": 0, "CLASSIFICATION_TYPE": "U", "NORAD_CAT_ID": 33860, "ELEMENT_SET_NO": 999, "REV_AT_EPOCH": 88808, "BSTAR": 0.00081514555, "MEAN_MOTION_DOT": 4.635e-05, "MEAN_MOTION_DDOT": 0}, "tle": {"line1": "1 33860U 97051AD  25352.60492100  .00004635  00000+0  81515-3 0  9991", "line2": "2 33860  86.3829  24.6422 0006718 336.0617 154.5201 14.67436925888083"}}, "geometry": {"type": "Point", "coordinates": [22.179258920132654, -32.3418305053067]}}, {"type": "Feature", "properties": {"norad_id": 33862, "name": "IRIDIUM 33 DEB", "group": "iridium-33-debris", "lat": 50.39186130362452, "lon": 39.13019307393339, "alt_km": 620.7087319883394, "timestamp": "2025-12-18T23:35:49.447107+00:00", "meta": {"OBJECT_NAME": "IRIDIUM 33 DEB", "OBJECT_ID": "1997-051AF", "EPOCH": "2025-12-18T14:17:29.205888", "MEAN_MOTION": 14.69565886, "ECCENTRICITY": 0.00528917, "INCLINATION": 86.4087, "RA_OF_ASC_NODE": 34.9485, "ARG_OF_PERICENTER": 49.5789, "MEAN_ANOMALY": 111.0482, "EPHEMERIS_TYPE": 0, "CLASSIFICATION_TYPE": "U", "NORAD_CAT_ID": 33862, "ELEMENT_SET_NO": 999, "REV_AT_EPOCH": 88909, "BSTAR": 0.0010173542, "MEAN_MOTION_DOT": 6.195e-05, "MEAN_MOTION_DDOT": 0}, "tle": {"line1": "1 33862U 97051AF  25352.59547692  .00006195  00000+0  10174-2 0  9993", "line2": "2 33862  86.4087  34.9485 0052891  49.5789 111.0482 14.69565886889096"}}, "geometry": {"type": "Point", "coordinates": [39.13019307393339, 50.39186130362452]}}, {"type": "Feature", "properties": {"norad_id": 33866, "name": "IRIDIUM 33 DEB", "group": "iridium-33-debris", "lat": -24.104135019140326, "lon": -87.94673306426408, "alt_km": 774.1960604939768, "timestamp": "2025-12-18T23:35:49.447119+00:00", "meta": {"OBJECT_NAME": "IRIDIUM 33 DEB", "OBJECT_ID": "1997-051AK", "EPOCH": "2025-12-18T12:36:52.621056", "MEAN_MOTION": 14.25292345, "ECCENTRICITY": 0.01148558, "INCLINATION": 86.3001, "RA_OF_ASC_NODE": 90.5879, "ARG_OF_PERICENTER": 143.0415, "MEAN_ANOMALY": 233.3292, "EPHEMERIS_TYPE": 0, "CLASSIFICATION_TYPE": "U", "NORAD_CAT_ID": 33866, "ELEMENT_SET_NO": 999, "REV_AT_EPOCH": 86893, "BSTAR": 0.00045694828, "MEAN_MOTION_DOT": 1.172e-05, "MEAN_MOTION_DDOT": 0}, "tle": {"line1": "1 33866U 97051AK  25352.52560904  .00001172  00000+0  45695-3 0  9998", "line2": "2 33866  86.3001  90.5879 0114855 143.0415 233.3292 14.25292345868931"}}, "geometry": {"type": "Point", "coordinates": [-87.94673306426408, -24.104135019140326]}}]}